{
"type": "FeatureCollection",
"name": "BridgeObstructions",
"crs": { "type": "name", "properties": { "name": "urn:ogc:def:crs:OGC:1.3:CRS84" } },
"features": [
{ "type": "Feature", "properties": { "name": "Brooklyn Bridge", "height": "308" }, "geometry": { "type": "MultiPolygon", "coordinates": [ [ [ [ -73.994801316648349, 40.704639760376551 ], [ -73.995071877147709, 40.704485638746391 ], [ -73.998987298149103, 40.707594690567689 ], [ -73.998712583400049, 40.707745050518781 ], [ -73.994801316648349, 40.704639760376551 ] ] ] ] } },
{ "type": "Feature", "properties": { "name": "George Washington Bridge", "height": "601" }, "geometry": { "type": "MultiPolygon", "coordinates": [ [ [ [ -73.9586681, 40.8526666 ], [ -73.9587182, 40.8525175 ], [ -73.9590427, 40.8525799 ], [ -73.9589974, 40.852715099999983 ], [ -73.959188, 40.8527623 ], [ -73.959183, 40.8527797 ], [ -73.960751, 40.8530837 ], [ -73.9607736, 40.8530516 ], [ -73.9616024, 40.8532118 ], [ -73.9616154, 40.8531741 ], [ -73.9618192, 40.8532045 ], [ -73.9618169, 40.853248400000012 ], [ -73.9621388, 40.8533011 ], [ -73.9626507, 40.8532938 ], [ -73.9629538, 40.8533141 ], [ -73.9628252, 40.853798 ], [ -73.9627697, 40.8539211 ], [ -73.962568, 40.854033499999986 ], [ -73.9622269, 40.853799 ], [ -73.961787, 40.8536833 ], [ -73.9617575, 40.8537259 ], [ -73.9615702, 40.8536764 ], [ -73.9615805, 40.8536306 ], [ -73.9606185, 40.8534325 ], [ -73.960625, 40.8533969 ], [ -73.9588775, 40.8530723 ], [ -73.9588299, 40.8532142 ], [ -73.9585052, 40.8531518 ], [ -73.9585551, 40.8530032 ], [ -73.947250940728111, 40.85077244963167 ], [ -73.947277289056132, 40.850746883680969 ], [ -73.947410479782135, 40.850539421863999 ], [ -73.947425543391233, 40.850471512299023 ], [ -73.9586681, 40.8526666 ] ] ] ] } },
{ "type": "Feature", "properties": { "name": "Hell Gate Bridge", "height": "308" }, "geometry": { "type": "MultiPolygon", "coordinates": [ [ [ [ -73.921181216549257, 40.782130313581213 ], [ -73.921423502781153, 40.781927977083939 ], [ -73.922884599733322, 40.783010860522793 ], [ -73.92263863700687, 40.783211854042385 ], [ -73.921181216549257, 40.782130313581213 ] ] ] ] } },
{ "type": "Feature", "properties": { "name": "Joseph P. Addabbo Memorial Bridge", "height": "53" }, "geometry": { "type": "MultiPolygon", "coordinates": [ [ [ [ -73.8357991, 40.644764200000012 ], [ -73.8358335, 40.644752 ], [ -73.8353528, 40.643849500000023 ], [ -73.8353294, 40.6438567 ], [ -73.83283799515695, 40.639183348592859 ], [ -73.833117409220563, 40.639142263222205 ], [ -73.833235818226854, 40.639063525350352 ], [ -73.8357267, 40.643736400000016 ], [ -73.8357094, 40.643743100000016 ], [ -73.8361854, 40.6446465 ], [ -73.8362053, 40.6446405 ], [ -73.836393086728435, 40.644998918441537 ], [ -73.836107038999558, 40.645016617412402 ], [ -73.835971482006727, 40.645079201786196 ], [ -73.8357991, 40.644764200000012 ] ] ] ] } },
{ "type": "Feature", "properties": { "name": "Rikers Island Bridge", "height": "70" }, "geometry": { "type": "MultiPolygon", "coordinates": [ [ [ [ -73.885513961108884, 40.786309650896875 ], [ -73.885409721142025, 40.786297761374925 ], [ -73.885369896305392, 40.786290432261147 ], [ -73.890622981380147, 40.778426138067978 ], [ -73.890652219099906, 40.778452515308665 ], [ -73.890700025083916, 40.778541841367556 ], [ -73.885513961108884, 40.786309650896875 ] ] ] ] } },
{ "type": "Feature", "properties": { "name": "Queensboro Bridge", "height": "366" }, "geometry": { "type": "MultiPolygon", "coordinates": [ [ [ [ -73.958134555156946, 40.758297050464186 ], [ -73.957907047706811, 40.758501283857889 ], [ -73.955788525312173, 40.757584470686119 ], [ -73.955975153088104, 40.75736247576954 ], [ -73.958134555156946, 40.758297050464186 ] ] ], [ [ [ -73.953000049147974, 40.756068167393003 ], [ -73.952975018040178, 40.756089356605116 ], [ -73.952788707991942, 40.756271205407373 ], [ -73.951162530519582, 40.755566352481118 ], [ -73.951342684777913, 40.755346000561133 ], [ -73.953000049147974, 40.756068167393003 ] ] ] ] } },
{ "type": "Feature", "properties": { "name": "Williamsburg Bridge", "height": "343" }, "geometry": { "type": "MultiPolygon", "coordinates": [ [ [ [ -73.9746172, 40.7145511 ], [ -73.9746159, 40.7145369 ], [ -73.974589, 40.7145287 ], [ -73.9745957, 40.714503300000032 ], [ -73.9695089, 40.712961300000018 ], [ -73.9695009, 40.7129775 ], [ -73.969476, 40.7129687 ], [ -73.9694626, 40.7129819 ], [ -73.9693942, 40.7129616 ], [ -73.969378800000015, 40.71297040000001 ], [ -73.9693453, 40.712967400000011 ], [ -73.9693325, 40.712959599999984 ], [ -73.9693265, 40.7129399 ], [ -73.9692547, 40.7129179 ], [ -73.96924662847313, 40.712892916707951 ], [ -73.969272552852885, 40.712754935170317 ], [ -73.969353074599894, 40.712563809149728 ], [ -73.9693741, 40.7125702 ], [ -73.9693875, 40.7125652 ], [ -73.9694116, 40.7125723 ], [ -73.9694237, 40.7125591 ], [ -73.9694425, 40.712564100000016 ], [ -73.9694519, 40.7125499 ], [ -73.9695189, 40.7125713 ], [ -73.969539, 40.712564100000016 ], [ -73.9695699, 40.7125702 ], [ -73.9695927, 40.7125855 ], [ -73.969598, 40.7125946 ], [ -73.9696571, 40.712614 ], [ -73.9696544, 40.712629200000016 ], [ -73.9696812, 40.7126373 ], [ -73.9696745, 40.7126556 ], [ -73.974758, 40.714199399999984 ], [ -73.9747761, 40.7141835 ], [ -73.9747996, 40.7141902 ], [ -73.9748109, 40.7141794 ], [ -73.974833766257703, 40.714187031729665 ], [ -73.974696123698422, 40.714485784460152 ], [ -73.974663382839751, 40.714564041712315 ], [ -73.9746172, 40.7145511 ] ] ] ] } },
{ "type": "Feature", "properties": { "name": "Broad Channel Bridge", "height": "18" }, "geometry": { "type": "MultiPolygon", "coordinates": [ [ [ [ -73.814358521022541, 40.604777287181442 ], [ -73.814455852786793, 40.604750580034157 ], [ -73.815083865407701, 40.606224490171165 ], [ -73.815043533414027, 40.606384969030032 ], [ -73.814358521022541, 40.604777287181442 ] ] ] ] } },
{ "type": "Feature", "properties": { "name": "South Channel Subway Bridge", "height": "70" }, "geometry": { "type": "MultiPolygon", "coordinates": [ [ [ [ -73.8107699, 40.596422 ], [ -73.8106601, 40.5964491 ], [ -73.810639600000016, 40.5964012 ], [ -73.810691, 40.59638850000001 ], [ -73.810683, 40.5963714 ], [ -73.810738, 40.5963549 ], [ -73.8106129, 40.5960374 ], [ -73.810230100000012, 40.59625960000001 ], [ -73.810142, 40.5962489 ], [ -73.8101486, 40.5961803 ], [ -73.8104406, 40.5959859 ], [ -73.8105445, 40.5959176 ], [ -73.8104071, 40.595585600000014 ], [ -73.8102924, 40.5956129 ], [ -73.8102652, 40.595547200000013 ], [ -73.8103848, 40.595518600000013 ], [ -73.809690760252309, 40.593902908483429 ], [ -73.809739545082479, 40.593896638875627 ], [ -73.809796849253402, 40.593870200702554 ], [ -73.8104725, 40.595448 ], [ -73.8105546, 40.595427700000023 ], [ -73.8106015, 40.5955372 ], [ -73.8105296, 40.59555490000001 ], [ -73.8106562, 40.5958507 ], [ -73.8110299, 40.5956458 ], [ -73.811085, 40.5956513 ], [ -73.8111399, 40.5956567 ], [ -73.8111323, 40.595701 ], [ -73.8111256, 40.5957398 ], [ -73.8107148, 40.5959782 ], [ -73.8108562, 40.59630910000002 ], [ -73.810932, 40.5962904 ], [ -73.8109867, 40.596418300000011 ], [ -73.8108985, 40.596440099999981 ], [ -73.811488270939009, 40.597819172884421 ], [ -73.811374616024167, 40.597829719235925 ], [ -73.811372632004975, 40.59783068844434 ], [ -73.8107699, 40.596422 ] ] ] ] } },
{ "type": "Feature", "properties": { "name": "Marine Parkway Bridge", "height": "222" }, "geometry": { "type": "MultiPolygon", "coordinates": [ [ [ [ -73.8861201, 40.5756679 ], [ -73.8860319, 40.5757001 ], [ -73.8860312, 40.5757151 ], [ -73.8860246, 40.5757292 ], [ -73.8860127, 40.5757412 ], [ -73.8859966, 40.5757499 ], [ -73.885978600000016, 40.575754500000016 ], [ -73.885959700000015, 40.575754900000021 ], [ -73.8859414, 40.575751100000026 ], [ -73.8859254, 40.5757435 ], [ -73.8859128, 40.5757328 ], [ -73.8859049, 40.5757197 ], [ -73.8859024, 40.5757048 ], [ -73.8859058, 40.57569010000001 ], [ -73.8859149, 40.575676700000017 ], [ -73.8859288, 40.5756661 ], [ -73.8859463, 40.5756592 ], [ -73.8860799, 40.5756082 ], [ -73.8853182, 40.574357 ], [ -73.885197, 40.5744022 ], [ -73.8851776, 40.574406600000039 ], [ -73.8851573, 40.5744063 ], [ -73.8851381, 40.5744014 ], [ -73.8851217, 40.5743923 ], [ -73.8851097, 40.57437980000001 ], [ -73.88504, 40.5742538 ], [ -73.8850349, 40.5742397 ], [ -73.8850359, 40.5742251 ], [ -73.8850429, 40.574211600000012 ], [ -73.8850551, 40.5742003 ], [ -73.8850714, 40.5741926 ], [ -73.8852021, 40.5741449 ], [ -73.8844429, 40.5728984 ], [ -73.8842829, 40.5729548 ], [ -73.884264, 40.572953700000014 ], [ -73.8842465, 40.5729482 ], [ -73.8842321, 40.57293880000001 ], [ -73.8841464, 40.5727976 ], [ -73.8841458, 40.5727822 ], [ -73.884152, 40.5727676 ], [ -73.8841642, 40.5727554 ], [ -73.8841861, 40.5727418 ], [ -73.8843163, 40.5726959 ], [ -73.8835577, 40.571453500000011 ], [ -73.8833954, 40.571509800000015 ], [ -73.8833776, 40.5715091 ], [ -73.8833608, 40.57150450000001 ], [ -73.8833466, 40.571496399999987 ], [ -73.883336, 40.571485500000016 ], [ -73.8833297, 40.571470500000011 ], [ -73.8833303, 40.5714547 ], [ -73.883338, 40.5714401 ], [ -73.8833517, 40.571428199999986 ], [ -73.8833699, 40.5714206 ], [ -73.8833859, 40.5714182 ], [ -73.8834022, 40.5714191 ], [ -73.8834175, 40.5714234 ], [ -73.8834309, 40.5714305 ], [ -73.8835376, 40.571393 ], [ -73.882095477813778, 40.569029802184346 ], [ -73.8823231037954, 40.568954369311989 ], [ -73.8837484, 40.571309700000015 ], [ -73.8838069, 40.5712891 ], [ -73.8838077, 40.571273 ], [ -73.8838152, 40.5712581 ], [ -73.8838286, 40.5712456 ], [ -73.8838464, 40.5712371 ], [ -73.8838681, 40.5712332 ], [ -73.8838903, 40.571235100000024 ], [ -73.8839103, 40.5712424 ], [ -73.883926, 40.571254400000015 ], [ -73.8839355, 40.5712697 ], [ -73.8839378, 40.5712852 ], [ -73.8839337, 40.571300400000013 ], [ -73.8839237, 40.571314 ], [ -73.8838912, 40.5713349 ], [ -73.8837879, 40.571371100000015 ], [ -73.8845462, 40.572621299999987 ], [ -73.8846499, 40.5725851 ], [ -73.8846688, 40.5725853 ], [ -73.8846866, 40.5725901 ], [ -73.8847015, 40.572599 ], [ -73.8847946, 40.572740299999985 ], [ -73.8847944, 40.5727547 ], [ -73.8847883, 40.5727683 ], [ -73.8847777, 40.5727805 ], [ -73.8847656, 40.5727879 ], [ -73.8846674, 40.5728219 ], [ -73.8854173, 40.5740711 ], [ -73.8855175, 40.5740365 ], [ -73.8855354, 40.574030900000011 ], [ -73.8855548, 40.57403 ], [ -73.8855734, 40.574034 ], [ -73.8855893, 40.5740425 ], [ -73.8856005, 40.5740546 ], [ -73.8856868, 40.5741837 ], [ -73.885691, 40.5741971 ], [ -73.8856897, 40.57421080000001 ], [ -73.8856829, 40.5742235 ], [ -73.8856712, 40.5742341 ], [ -73.8856559, 40.5742415 ], [ -73.8855538, 40.574276700000013 ], [ -73.8863031, 40.5755282 ], [ -73.8864296, 40.5754891 ], [ -73.8864481, 40.575485700000016 ], [ -73.886467, 40.575486899999987 ], [ -73.8864844, 40.5754926 ], [ -73.8864986, 40.5755021 ], [ -73.8865082, 40.5755146 ], [ -73.886512, 40.5755286 ], [ -73.88651, 40.5755428 ], [ -73.88650220000001, 40.5755558 ], [ -73.8864894, 40.5755663 ], [ -73.886473, 40.5755733 ], [ -73.886455600000019, 40.575576 ], [ -73.886438, 40.5755746 ], [ -73.8864216, 40.5755694 ], [ -73.886408, 40.5755608 ], [ -73.8863299, 40.575588599999989 ], [ -73.887623918875633, 40.577707559382219 ], [ -73.887373059019438, 40.577719691868495 ], [ -73.8861201, 40.5756679 ] ] ] ] } },
{ "type": "Feature", "properties": { "name": "North Channel Subway Bridge", "height": "67" }, "geometry": { "type": "MultiPolygon", "coordinates": [ [ [ [ -73.8253201, 40.644454300000028 ], [ -73.8252657, 40.6444625 ], [ -73.8252445, 40.6443888 ], [ -73.8253007, 40.6443783 ], [ -73.8252324, 40.644111199999983 ], [ -73.8248017, 40.6441759 ], [ -73.8247563, 40.6441693 ], [ -73.8247023, 40.6441438 ], [ -73.8247395, 40.6440985 ], [ -73.8247722, 40.6440773 ], [ -73.8251931, 40.6439936 ], [ -73.8251206, 40.64371280000001 ], [ -73.8250527, 40.643723100000024 ], [ -73.82503, 40.643643299999987 ], [ -73.8251089, 40.643631600000013 ], [ -73.824230927369697, 40.640262167262371 ], [ -73.824313327590559, 40.640239562000367 ], [ -73.8252023, 40.643621100000011 ], [ -73.8252665, 40.643611400000019 ], [ -73.8252871, 40.6436887 ], [ -73.8252413, 40.643696900000016 ], [ -73.8253184, 40.6439754 ], [ -73.8257239, 40.6439091 ], [ -73.8257694, 40.6439188 ], [ -73.8258164, 40.6439587 ], [ -73.8257893, 40.6439986 ], [ -73.8257502, 40.644019200000017 ], [ -73.8253531, 40.644098099999987 ], [ -73.825402, 40.6443631 ], [ -73.8254512, 40.644355 ], [ -73.8254788, 40.6444274 ], [ -73.8254261, 40.6444352 ], [ -73.826345385407478, 40.647988527162759 ], [ -73.826252652307858, 40.647993934912236 ], [ -73.826248100211131, 40.64799585850254 ], [ -73.8253201, 40.644454300000028 ] ] ] ] } },
{ "type": "Feature", "properties": { "name": "Cross Bay Bridge", "height": "99" }, "geometry": { "type": "MultiPolygon", "coordinates": [ [ [ [ -73.8193981, 40.589309 ], [ -73.819438, 40.5898129 ], [ -73.8195257, 40.5902222 ], [ -73.820726562922431, 40.594639978682849 ], [ -73.820409575852992, 40.59488885171519 ], [ -73.819061, 40.5901983 ], [ -73.818951, 40.5899722 ], [ -73.8187652, 40.589651 ], [ -73.8185603, 40.5893716 ], [ -73.8182777, 40.5890533 ], [ -73.818203301773025, 40.588980884171974 ], [ -73.818312435335613, 40.588871691241053 ], [ -73.818339757384166, 40.588856400964985 ], [ -73.8185372, 40.5890628 ], [ -73.8187222, 40.5892828 ], [ -73.8189891, 40.589663599999987 ], [ -73.8191903, 40.5900272 ], [ -73.8192077, 40.5900231 ], [ -73.819142, 40.589738 ], [ -73.8191098, 40.589492600000014 ], [ -73.8190738, 40.5891308 ], [ -73.819017922733522, 40.588559457495435 ], [ -73.819094326708438, 40.588528388114021 ], [ -73.819113544957204, 40.588514342216087 ], [ -73.8191573, 40.588865800000015 ], [ -73.819124387554965, 40.588506417763639 ], [ -73.819233153509359, 40.588426924601599 ], [ -73.8192928, 40.5889554 ], [ -73.819275338669812, 40.588396092891578 ], [ -73.819370921294123, 40.588326234614392 ], [ -73.8193981, 40.589309 ] ] ] ] } },
{ "type": "Feature", "properties": { "name": "Wards Island Bridge", "height": "186" }, "geometry": { "type": "MultiPolygon", "coordinates": [ [ [ [ -73.9367583, 40.7858835 ], [ -73.9367701, 40.7858681 ], [ -73.936867, 40.7858065 ], [ -73.936875, 40.785797 ], [ -73.9369176, 40.78581770000001 ], [ -73.9368557, 40.78589310000001 ], [ -73.9368374, 40.7859169 ], [ -73.9377764, 40.786350500000012 ], [ -73.9377984, 40.786323699999983 ], [ -73.9378058, 40.786312599999981 ], [ -73.9378138, 40.7863004 ], [ -73.9378603, 40.786243100000014 ], [ -73.9379012, 40.7862568 ], [ -73.9378796, 40.7863408 ], [ -73.9378693, 40.7863384 ], [ -73.9378656, 40.786347099999979 ], [ -73.9378631, 40.7863541 ], [ -73.9378679, 40.78636250000001 ], [ -73.9378516, 40.7863827 ], [ -73.938146582910491, 40.786515372969056 ], [ -73.938115907729198, 40.786549721541 ], [ -73.9378235, 40.786417599999972 ], [ -73.9378079, 40.7864369 ], [ -73.9377937, 40.786438 ], [ -73.9377139, 40.7865044 ], [ -73.9376902, 40.78650709999998 ], [ -73.9376721, 40.7864897 ], [ -73.937729500000017, 40.7864078 ], [ -73.9377504, 40.7863822 ], [ -73.9373058, 40.7861817 ], [ -73.9368097, 40.785953 ], [ -73.9367895, 40.785979400000016 ], [ -73.936717, 40.7860611 ], [ -73.936676, 40.7860491 ], [ -73.9367037, 40.7859559 ], [ -73.9367154, 40.785939700000021 ], [ -73.93673, 40.785920500000024 ], [ -73.936160453801065, 40.785659496294848 ], [ -73.936172830710646, 40.785620296874917 ], [ -73.9367583, 40.7858835 ] ] ] ] } },
{ "type": "Feature", "properties": { "name": "Manhattan Bridge", "height": "335" }, "geometry": { "type": "MultiPolygon", "coordinates": [ [ [ [ -73.9913057, 40.708971 ], [ -73.991272223966888, 40.7089125044063 ], [ -73.9912653, 40.7089052 ], [ -73.9912544, 40.7088906 ], [ -73.9912474, 40.708874 ], [ -73.991246489100206, 40.708867535551406 ], [ -73.9912099, 40.70880360000001 ], [ -73.991246232764098, 40.708791648114456 ], [ -73.989277254250098, 40.705262970070663 ], [ -73.9892495, 40.705272100000016 ], [ -73.989215098747366, 40.705211987687868 ], [ -73.9892108, 40.7052076 ], [ -73.9891976, 40.70519 ], [ -73.989188, 40.70516820000001 ], [ -73.989186212922064, 40.705161512871371 ], [ -73.989161234976848, 40.705117866579648 ], [ -73.989359976903103, 40.705137952889061 ], [ -73.989711887606049, 40.705212738658282 ], [ -73.991641672557108, 40.708661564749626 ], [ -73.9916747, 40.7086507 ], [ -73.991705312997098, 40.708704192957626 ], [ -73.991715, 40.7087124 ], [ -73.9917303, 40.708735 ], [ -73.9917396, 40.708757200000015 ], [ -73.991740481289526, 40.708765645692999 ], [ -73.9917705, 40.708818100000016 ], [ -73.991735787535731, 40.708829519056032 ], [ -73.991930503165094, 40.709175082460767 ], [ -73.991497964673158, 40.70923586103391 ], [ -73.991338913623807, 40.708960074175387 ], [ -73.9913057, 40.708971 ] ] ] ] } },
{ "type": "Feature", "properties": { "name": "Robert F. Kennedy Bridge", "height": "335" }, "geometry": { "type": "MultiPolygon", "coordinates": [ [ [ [ -73.927287016980486, 40.780760200054267 ], [ -73.927287016980486, 40.780760200054267 ], [ -73.927286983865685, 40.780760207566601 ], [ -73.925783064705314, 40.778788129099894 ], [ -73.925783317616123, 40.778788038868583 ], [ -73.926164183724936, 40.77865215585954 ], [ -73.927692874540426, 40.780668127451776 ], [ -73.927287016980486, 40.780760200054267 ] ] ] ] } },
{ "type": "Feature", "properties": { "name": "Bayonne Bridge", "height": "330" }, "geometry": { "type": "MultiPolygon", "coordinates": [ [ [ [ -74.1409849, 40.644250800000016 ], [ -74.1410966, 40.6439671 ], [ -74.1411338, 40.643975499999982 ], [ -74.1411439, 40.6439499 ], [ -74.141197129848933, 40.6439619528511 ], [ -74.142576566527097, 40.640547870527698 ], [ -74.142678593853077, 40.640498033138471 ], [ -74.142874061268643, 40.640284400418665 ], [ -74.143031267795564, 40.640160055593128 ], [ -74.143093747056739, 40.640134765984648 ], [ -74.1419119, 40.6430418 ], [ -74.141507836327634, 40.644032305635939 ], [ -74.1415692, 40.6440462 ], [ -74.1415505, 40.6440937 ], [ -74.1415732, 40.6440989 ], [ -74.1414701, 40.6443608 ], [ -74.1413975, 40.6443444 ], [ -74.141381464825983, 40.644340764140225 ], [ -74.1403209, 40.6468505 ], [ -74.1401509, 40.647202299999982 ], [ -74.139971100000011, 40.647558 ], [ -74.139585, 40.6481698 ], [ -74.1390364, 40.648949100000024 ], [ -74.1371287, 40.6516406 ], [ -74.1370615, 40.6516139 ], [ -74.1370025, 40.651590400000032 ], [ -74.1369179, 40.651554 ], [ -74.1368328, 40.6515223 ], [ -74.136783600000015, 40.6515018 ], [ -74.1367626, 40.6514951 ], [ -74.1375741, 40.650469 ], [ -74.1380125, 40.649914700000011 ], [ -74.1390085, 40.6485439 ], [ -74.1394064, 40.6479617 ], [ -74.1400699, 40.6467056 ], [ -74.1405068, 40.645648 ], [ -74.1408354, 40.6448445 ], [ -74.141072010376902, 40.644270584651132 ], [ -74.1409849, 40.644250800000016 ] ] ] ] } },
{ "type": "Feature", "properties": { "name": "Goethals Bridge", "height": "260" }, "geometry": { "type": "MultiPolygon", "coordinates": [ [ [ [ -74.1984647, 40.6364027 ], [ -74.1984261, 40.636382500000018 ], [ -74.198441024595553, 40.63636602989957 ], [ -74.196291796557531, 40.635231291412651 ], [ -74.196409049977788, 40.635163453359112 ], [ -74.196462395868224, 40.635082632021046 ], [ -74.198577014488635, 40.636215957213714 ], [ -74.1986144, 40.636174700000012 ], [ -74.1986531, 40.636194900000014 ], [ -74.19861537135921, 40.636236513778186 ], [ -74.199710100000019, 40.636823200000023 ], [ -74.2006537, 40.6373165 ], [ -74.2011291, 40.6375651 ], [ -74.2012104, 40.637607600000017 ], [ -74.2019105, 40.6380554 ], [ -74.2020772, 40.638162 ], [ -74.2022395, 40.6382658 ], [ -74.2030677, 40.6388934 ], [ -74.2039556, 40.6396406 ], [ -74.2051577, 40.6407118 ], [ -74.2051933, 40.6407435 ], [ -74.205419, 40.640944600000012 ], [ -74.2060528, 40.6414202 ], [ -74.2068684, 40.6419806 ], [ -74.2067485, 40.64220390000002 ], [ -74.2067366, 40.6422244 ], [ -74.2052985, 40.641163 ], [ -74.2037132, 40.6397205 ], [ -74.2033655, 40.63943 ], [ -74.2020832, 40.6384038 ], [ -74.2010722, 40.6377795 ], [ -74.2007909, 40.6376264 ], [ -74.1995729, 40.6369636 ], [ -74.198479520134399, 40.636386353859073 ], [ -74.1984647, 40.6364027 ] ] ], [ [ [ -74.1986807, 40.6361586 ], [ -74.1986422, 40.6361384 ], [ -74.198661169971103, 40.636117465606532 ], [ -74.196522714051682, 40.634991247090149 ], [ -74.196621547243254, 40.634841509469709 ], [ -74.198783791452058, 40.635982145748741 ], [ -74.1988305, 40.6359306 ], [ -74.1988691, 40.635950799999989 ], [ -74.198822275491565, 40.636002446290519 ], [ -74.2009193, 40.6371086 ], [ -74.2014937, 40.6374116 ], [ -74.2016545, 40.6375175 ], [ -74.2017753, 40.637597 ], [ -74.2025478, 40.63810560000001 ], [ -74.2037038, 40.639027700000014 ], [ -74.2038995, 40.6391969 ], [ -74.2052125, 40.640331900000014 ], [ -74.2056109, 40.6406763 ], [ -74.206687, 40.6414417 ], [ -74.2070507, 40.641673400000016 ], [ -74.2069334, 40.641870200000028 ], [ -74.2065739, 40.641643500000015 ], [ -74.2054732, 40.6408545 ], [ -74.205215, 40.6406394 ], [ -74.2047422, 40.640245800000017 ], [ -74.2045138, 40.64005550000001 ], [ -74.2035321, 40.6391294 ], [ -74.2024083, 40.63822170000001 ], [ -74.2022409, 40.6381128 ], [ -74.2020089, 40.6379618 ], [ -74.2014705, 40.637611400000011 ], [ -74.2013542, 40.6375357 ], [ -74.200751, 40.637218 ], [ -74.198699630567603, 40.636137720179072 ], [ -74.1986807, 40.6361586 ] ] ] ] } },
{ "type": "Feature", "properties": { "name": "Arthur Kill Lift Bridge", "height": "210" }, "geometry": { "type": "MultiPolygon", "coordinates": [ [ [ [ -74.196528, 40.638088900000014 ], [ -74.1964873, 40.638104 ], [ -74.196462, 40.638101400000011 ], [ -74.1964413, 40.6380854 ], [ -74.1964291, 40.6380662 ], [ -74.1964207, 40.6380392 ], [ -74.1964115, 40.637995 ], [ -74.1964168, 40.6379596 ], [ -74.1964252, 40.637938300000016 ], [ -74.196436711504475, 40.637918364608836 ], [ -74.1964342, 40.6379176 ], [ -74.1964583, 40.6378688 ], [ -74.195112694175506, 40.637444224679321 ], [ -74.195145432679183, 40.637407422343657 ], [ -74.195164064804359, 40.637360713614051 ], [ -74.196508199578489, 40.637794562711399 ], [ -74.1965501, 40.637722 ], [ -74.1965862, 40.6376801 ], [ -74.1966467, 40.6376516 ], [ -74.1966812, 40.6376403 ], [ -74.1967073, 40.6376415 ], [ -74.1967233, 40.6376469 ], [ -74.1967402, 40.6376603 ], [ -74.1967471, 40.6376807 ], [ -74.1967693, 40.6377359 ], [ -74.1967693, 40.6377534 ], [ -74.196754, 40.63779 ], [ -74.196710603576051, 40.637867423750635 ], [ -74.197417, 40.638116700000012 ], [ -74.1978354, 40.638238800000025 ], [ -74.1988734, 40.638501300000023 ], [ -74.1998701, 40.638756200000017 ], [ -74.1998583, 40.638777900000015 ], [ -74.1998349, 40.638813900000024 ], [ -74.1998165, 40.63884370000001 ], [ -74.1991979, 40.6386438 ], [ -74.1988482, 40.638554700000014 ], [ -74.1978863, 40.6382998 ], [ -74.19772, 40.638251 ], [ -74.1973526, 40.6381431 ], [ -74.1970404, 40.6380479 ], [ -74.196675626249714, 40.637929826809 ], [ -74.1966345, 40.6380032 ], [ -74.1965931, 40.638058099999981 ], [ -74.196528, 40.638088900000014 ] ] ] ] } },
{ "type": "Feature", "properties": { "name": "Bronx-Whitestone Bridge", "height": "382" }, "geometry": { "type": "MultiPolygon", "coordinates": [ [ [ [ -73.8277853, 40.7993167 ], [ -73.8277625, 40.7993154 ], [ -73.8277487, 40.7992958 ], [ -73.8277362, 40.7993009 ], [ -73.8277191, 40.7992765 ], [ -73.8277332, 40.7992708 ], [ -73.8277289, 40.7992539 ], [ -73.8277357, 40.7992416 ], [ -73.8277513, 40.7992342 ], [ -73.8277687, 40.7992397 ], [ -73.827015313857984, 40.798079230347959 ], [ -73.82723153857836, 40.798020027434212 ], [ -73.827308540717553, 40.797976518227578 ], [ -73.8280445, 40.799115500000021 ], [ -73.8280669, 40.799106599999988 ], [ -73.828098200000014, 40.7991185 ], [ -73.8281169, 40.7991256 ], [ -73.828137, 40.799166300000017 ], [ -73.828133, 40.7991896 ], [ -73.8280991, 40.799201 ], [ -73.831568480439131, 40.804598754164871 ], [ -73.831409023968192, 40.804630461924887 ], [ -73.831274681040568, 40.804717276580078 ], [ -73.8278054, 40.79930860000001 ], [ -73.8277853, 40.7993167 ] ] ] ] } },
{ "type": "Feature", "properties": { "name": "Verrazzano Narrows Bridge", "height": "694" }, "geometry": { "type": "MultiPolygon", "coordinates": [ [ [ [ -74.0521489, 40.6037983 ], [ -74.0521173, 40.6038198 ], [ -74.0521155, 40.60385 ], [ -74.052166, 40.6039266 ], [ -74.052207789907158, 40.604007305241119 ], [ -74.052309643540752, 40.603974397362187 ], [ -74.0522439, 40.6038566 ], [ -74.0523488, 40.60382280000001 ], [ -74.0524936, 40.6037762 ], [ -74.05255893028675, 40.603893256907114 ], [ -74.053147256636606, 40.603703258749022 ], [ -74.053218383437112, 40.603966850598674 ], [ -74.052694439038319, 40.604136056114363 ], [ -74.0527606, 40.6042546 ], [ -74.0526102, 40.604303 ], [ -74.0525109, 40.604335 ], [ -74.052445013959414, 40.604216948705073 ], [ -74.052334795549882, 40.604252578983292 ], [ -74.052369500000012, 40.6043196 ], [ -74.0524004, 40.604364600000011 ], [ -74.0524323, 40.604394100000015 ], [ -74.052519, 40.604382100000016 ], [ -74.0527402, 40.6043129 ], [ -74.0528543, 40.6042685 ], [ -74.0528602, 40.6041957 ], [ -74.0529323, 40.604198 ], [ -74.0529561, 40.604221800000012 ], [ -74.052970700000017, 40.604269100000018 ], [ -74.0529641, 40.6043059 ], [ -74.0529365, 40.6043376 ], [ -74.0526394, 40.604447199999989 ], [ -74.0524947, 40.6044812 ], [ -74.0524228, 40.6044921 ], [ -74.0523928, 40.6044919 ], [ -74.0523603, 40.604485 ], [ -74.0523029, 40.604454900000015 ], [ -74.052208792962205, 40.604293311632688 ], [ -74.03877197992071, 40.608635929172216 ], [ -74.0388576, 40.608809 ], [ -74.038861, 40.6088382 ], [ -74.0388518, 40.6088666 ], [ -74.038831, 40.6088913 ], [ -74.0388007, 40.60890950000001 ], [ -74.038347, 40.609052 ], [ -74.0383156, 40.6090573 ], [ -74.0382835, 40.6090553 ], [ -74.0382535, 40.6090465 ], [ -74.0382281, 40.6090314 ], [ -74.0382096, 40.6090114 ], [ -74.038113483435936, 40.608844958763449 ], [ -74.036561543708913, 40.609346906423482 ], [ -74.036413355643958, 40.609105771714511 ], [ -74.037971822424154, 40.608599648351124 ], [ -74.0378522, 40.6083925 ], [ -74.037856100000013, 40.6083409 ], [ -74.0379088, 40.608294800000017 ], [ -74.0383989, 40.608146800000014 ], [ -74.0384776, 40.60815 ], [ -74.0385194, 40.608165499999984 ], [ -74.0385538, 40.6081949 ], [ -74.03864882029562, 40.608386974917316 ], [ -74.052068446573514, 40.60405232546406 ], [ -74.0520318, 40.60398940000001 ], [ -74.051983, 40.6038874 ], [ -74.0519532, 40.6038209 ], [ -74.0519698, 40.603784399999988 ], [ -74.0520013, 40.603755 ], [ -74.0520559, 40.6037392 ], [ -74.0525264, 40.603594 ], [ -74.052578, 40.6036081 ], [ -74.0526158, 40.6036144 ], [ -74.0526453, 40.603630400000014 ], [ -74.0526558, 40.603679700000015 ], [ -74.0526181, 40.6037291 ], [ -74.0525668, 40.603718399999984 ], [ -74.0525093, 40.60369080000001 ], [ -74.0524465, 40.6037002 ], [ -74.0523589, 40.6037311 ], [ -74.0522438, 40.60376740000001 ], [ -74.0521562, 40.6037949 ], [ -74.0521489, 40.6037983 ] ], [ [ -74.038215002883987, 40.608812123086047 ], [ -74.0382925, 40.608947600000015 ], [ -74.0383197, 40.6089604 ], [ -74.0383539, 40.6089628 ], [ -74.0387031, 40.6088441 ], [ -74.0387199, 40.6088307 ], [ -74.0387322, 40.6088045 ], [ -74.0387169, 40.6087696 ], [ -74.03866607061093, 40.608670149305887 ], [ -74.038574109868506, 40.608699862439657 ], [ -74.0386361, 40.6088115 ], [ -74.038525600000014, 40.608846900000017 ], [ -74.038387, 40.6088912 ], [ -74.038323556593312, 40.608777012096397 ], [ -74.038215002883987, 40.608812123086047 ] ], [ [ -74.038392, 40.608248400000022 ], [ -74.0380276, 40.60835320000001 ], [ -74.0379994, 40.608378700000024 ], [ -74.0379927, 40.6084235 ], [ -74.038074404108741, 40.608566333195462 ], [ -74.038186310379913, 40.608529989578471 ], [ -74.0381212, 40.6084128 ], [ -74.0382591, 40.6083686 ], [ -74.0383704, 40.608333 ], [ -74.038438147292553, 40.608455007033008 ], [ -74.038539400179175, 40.608422309752456 ], [ -74.0384567, 40.6082605 ], [ -74.0384322, 40.6082487 ], [ -74.038392, 40.608248400000022 ] ] ] ] } },
{ "type": "Feature", "properties": { "name": "Outerbridge Crossing", "height": "250" }, "geometry": { "type": "MultiPolygon", "coordinates": [ [ [ [ -74.2517925, 40.5244415 ], [ -74.2517908, 40.5244183 ], [ -74.2518808, 40.524414500000013 ], [ -74.2518822, 40.5244327 ], [ -74.251883246995973, 40.524446885139554 ], [ -74.2549034, 40.5242872 ], [ -74.2553674, 40.524266800000014 ], [ -74.2557885, 40.5242648 ], [ -74.2564644, 40.524279 ], [ -74.2570612, 40.5243102 ], [ -74.257434, 40.5243347 ], [ -74.2666661, 40.5253561 ], [ -74.2670335, 40.5254275 ], [ -74.26746, 40.525515200000015 ], [ -74.2680715, 40.5256885 ], [ -74.2683854, 40.525780200000014 ], [ -74.2690006, 40.525997 ], [ -74.2692096, 40.5260707 ], [ -74.2692917, 40.52609960000003 ], [ -74.2692677, 40.5261373 ], [ -74.2692259, 40.5262029 ], [ -74.2691997, 40.5262441 ], [ -74.2682688, 40.5259019 ], [ -74.2673917, 40.525659300000015 ], [ -74.2669933, 40.525562100000016 ], [ -74.2665534, 40.5254927 ], [ -74.2662181, 40.5254479 ], [ -74.2580885, 40.5245549 ], [ -74.2573482, 40.5244774 ], [ -74.2568051, 40.5244421 ], [ -74.2561265, 40.5244156 ], [ -74.2554968, 40.524416700000017 ], [ -74.2552165, 40.524424799999984 ], [ -74.2549356, 40.524437 ], [ -74.2544742, 40.524460500000025 ], [ -74.2540115, 40.52448540000001 ], [ -74.251895246353016, 40.524609070273797 ], [ -74.2518966, 40.5246266 ], [ -74.2518065, 40.5246304 ], [ -74.251805323730949, 40.524614324325043 ], [ -74.2508284, 40.52467140000001 ], [ -74.2508303, 40.5246972 ], [ -74.2507403, 40.5247011 ], [ -74.2507384, 40.5246765 ], [ -74.2494912, 40.524750200000028 ], [ -74.2494941, 40.5247803 ], [ -74.2493882, 40.5247861 ], [ -74.2493854, 40.5247565 ], [ -74.2467981, 40.5249014 ], [ -74.2467995, 40.524924 ], [ -74.2466922, 40.524927699999985 ], [ -74.2466909, 40.5249054 ], [ -74.245442989820873, 40.524971508974041 ], [ -74.245449, 40.5250228 ], [ -74.2453784, 40.5250276 ], [ -74.245372268900169, 40.524975255057534 ], [ -74.24438661150198, 40.525027460699768 ], [ -74.244404588216881, 40.524904396934126 ], [ -74.244383155624135, 40.524865206914441 ], [ -74.245353001919142, 40.524810760540724 ], [ -74.2453505, 40.52478940000001 ], [ -74.2454211, 40.5247847 ], [ -74.245423688671082, 40.524806791920724 ], [ -74.2466809, 40.524736200000014 ], [ -74.2466795, 40.5247127 ], [ -74.2467868, 40.524709 ], [ -74.2467878, 40.5247263 ], [ -74.2493692, 40.5245855 ], [ -74.2493666, 40.5245582 ], [ -74.2494725, 40.5245524 ], [ -74.2494746, 40.5245747 ], [ -74.2507263, 40.524512200000018 ], [ -74.2507246, 40.524489 ], [ -74.2508146, 40.524485100000028 ], [ -74.2508159, 40.5245033 ], [ -74.251793253099393, 40.524451642173567 ], [ -74.2517925, 40.5244415 ] ] ] ] } },
{ "type": "Feature", "properties": { "name": "Throgs Neck Bridge", "height": "387" }, "geometry": { "type": "MultiPolygon", "coordinates": [ [ [ [ -73.7932803, 40.8028138 ], [ -73.7932508, 40.8027569 ], [ -73.7932723, 40.8026879 ], [ -73.7933393, 40.802635099999982 ], [ -73.7934134, 40.8026345 ], [ -73.7934656, 40.8026341 ], [ -73.793428, 40.7979346 ], [ -73.7933849, 40.797936700000022 ], [ -73.7933071, 40.7979185 ], [ -73.7932428, 40.7978819 ], [ -73.7932186, 40.797819 ], [ -73.793232, 40.79774590000001 ], [ -73.7932926, 40.797696700000024 ], [ -73.7933745, 40.797695500000017 ], [ -73.7934297, 40.797694700000015 ], [ -73.7934305, 40.7974494 ], [ -73.793393, 40.7974474 ], [ -73.793408, 40.7972987 ], [ -73.7934402, 40.7972987 ], [ -73.7934253, 40.7964867 ], [ -73.7933468, 40.7964875 ], [ -73.793336, 40.7959321 ], [ -73.7934375, 40.7959309 ], [ -73.7934198, 40.793979200000024 ], [ -73.7934064, 40.793502 ], [ -73.7933769, 40.793169 ], [ -73.7933339, 40.79285830000002 ], [ -73.7932696, 40.7925395 ], [ -73.7931542, 40.7920927 ], [ -73.7930201, 40.791692700000013 ], [ -73.7928216, 40.7912155 ], [ -73.7924123, 40.790527600000019 ], [ -73.7922029, 40.7901957 ], [ -73.7920783, 40.7900267 ], [ -73.7920199, 40.789953 ], [ -73.7919605, 40.7898847 ], [ -73.7918883, 40.789806700000028 ], [ -73.79186502934904, 40.789782706272263 ], [ -73.791906512354302, 40.789757072206051 ], [ -73.79194524689045, 40.78973313650129 ], [ -73.792124883328967, 40.789651782733948 ], [ -73.792204227057823, 40.789636587725326 ], [ -73.7923927, 40.7898728 ], [ -73.7925518, 40.7900614 ], [ -73.7925676, 40.7900559 ], [ -73.7925642, 40.7899534 ], [ -73.792515840796, 40.789619205139331 ], [ -73.792536563538405, 40.7896198939006 ], [ -73.792632309702256, 40.789645165207936 ], [ -73.7926722, 40.7899214 ], [ -73.7926868, 40.7900081 ], [ -73.7927085, 40.790099 ], [ -73.7927333, 40.7901877 ], [ -73.792761, 40.7902741 ], [ -73.7927834, 40.7903373 ], [ -73.7928028, 40.7903898 ], [ -73.7928377, 40.790481 ], [ -73.7929521, 40.7907507 ], [ -73.7931811, 40.7912642 ], [ -73.7934064, 40.7918531 ], [ -73.7935351, 40.7922917 ], [ -73.7936306, 40.7927584 ], [ -73.7936896, 40.7931036 ], [ -73.7937175, 40.7934898 ], [ -73.7937433, 40.7939646 ], [ -73.7937487, 40.7959275 ], [ -73.7938463, 40.795926400000013 ], [ -73.7938572, 40.796481900000011 ], [ -73.7937658, 40.7964829 ], [ -73.7937873, 40.7976896 ], [ -73.7938559, 40.7976886 ], [ -73.793931, 40.7977211 ], [ -73.7939965, 40.79778240000001 ], [ -73.7939696, 40.797871800000017 ], [ -73.7938935, 40.797912 ], [ -73.7937763, 40.7979177 ], [ -73.7938248, 40.8026312 ], [ -73.7938988, 40.8026306 ], [ -73.793975, 40.8026513 ], [ -73.7940286, 40.802704100000014 ], [ -73.794034, 40.802781300000014 ], [ -73.7939857, 40.8028341 ], [ -73.7938935, 40.802858 ], [ -73.793825, 40.8028607 ], [ -73.793844212755445, 40.804011478932367 ], [ -73.793819049744627, 40.803992961468467 ], [ -73.793611477042987, 40.803896402061177 ], [ -73.793480967476029, 40.803879721617648 ], [ -73.7934653, 40.802875 ], [ -73.7934225, 40.8028767 ], [ -73.793342, 40.802860499999987 ], [ -73.7932803, 40.8028138 ] ] ], [ [ [ -73.7954974, 40.8143528 ], [ -73.7952024, 40.8140117 ], [ -73.7948537, 40.813553 ], [ -73.7945372, 40.81306570000001 ], [ -73.7942057, 40.812469299999989 ], [ -73.7939471, 40.8118599 ], [ -73.7937711, 40.8113366 ], [ -73.7936639, 40.810914300000029 ], [ -73.7935995, 40.81054480000001 ], [ -73.7935673, 40.8102484 ], [ -73.7935244, 40.8098099 ], [ -73.793517042566393, 40.807763902806101 ], [ -73.793851603102041, 40.807911592654285 ], [ -73.7938613, 40.809403500000016 ], [ -73.7938613, 40.8096837 ], [ -73.793872, 40.810028800000012 ], [ -73.7939096, 40.8103739 ], [ -73.7939696, 40.8107275 ], [ -73.7940286, 40.811028 ], [ -73.7942003, 40.8116086 ], [ -73.7943666, 40.8120471 ], [ -73.7946874, 40.8126882 ], [ -73.7949502, 40.8131551 ], [ -73.7952989, 40.8136301 ], [ -73.7956101, 40.814028 ], [ -73.7958998, 40.814356800000034 ], [ -73.7963729, 40.8147957 ], [ -73.7968986, 40.815246400000014 ], [ -73.797166885092807, 40.815438145667684 ], [ -73.797028056089346, 40.815551512979638 ], [ -73.796992992491539, 40.815661261047389 ], [ -73.7969254, 40.815615800000018 ], [ -73.7963944, 40.8152017 ], [ -73.7958794, 40.814747 ], [ -73.7954974, 40.8143528 ] ] ] ] } }
]
}
